OBJECT_NAME,OBJECT_ID,EPOCH,MEAN_MOTION,ECCENTRICITY,INCLINATION,RA_OF_ASC_NODE,ARG_OF_PERICENTER,MEAN_ANOMALY,EPHEMERIS_TYPE,CLASSIFICATION_TYPE,NORAD_CAT_ID,ELEMENT_SET_NO,REV_AT_EPOCH,BSTAR,MEAN_MOTION_DOT,MEAN_MOTION_DDOT
CARTOSAT-2E,2017-036C,2026-06-15T11:07:53.641920,15.19241169,.0002599,97.4280,226.2946,330.1531,29.9555,0,U,42767,999,49788,.10711E-3,.2189E-4,0
IRIDIUM 113,2017-039A,2026-06-15T11:54:27.198432,14.34217791,.0002284,86.3968,322.8857,89.3664,270.7793,0,U,42803,999,47094,.27496E-5,.27E-6,0
NORSAT 2,2017-042D,2026-06-15T10:47:33.470016,15.21897075,.0010572,97.4030,339.9175,62.6635,297.5676,0,U,42828,999,48747,.35396E-3,.8002E-4,0
TECHNOSAT,2017-042E,2026-06-15T09:18:06.528384,15.04949456,.0018842,97.4276,324.1135,99.9086,260.4269,0,U,42829,999,48643,.25302E-3,.354E-4,0
FLYING LAPTOP,2017-042G,2026-06-15T12:27:28.257984,15.01137353,.0019506,97.4672,322.1159,127.1002,233.2009,0,U,42831,999,48620,.27856E-3,.3525E-4,0
WNISAT 1R,2017-042L,2026-06-15T10:13:39.727200,15.01756104,.0010953,97.4833,322.6111,153.0301,207.1495,0,U,42835,999,48624,.15377E-3,.1946E-4,0
LEMUR-2-GREENBERG,2017-042N,2026-06-15T10:52:51.293280,15.31281707,.0008689,97.3810,347.0859,20.1701,339.9882,0,U,42837,999,48812,.44222E-3,.13308E-3,0
LEMUR-2-FURIAUS,2017-042R,2026-06-15T10:42:09.559008,15.30202181,.0008238,97.3762,345.0379,74.3818,285.8331,0,U,42840,999,48794,.49395E-3,.14384E-3,0
CORVUS BC2,2017-042X,2026-06-15T09:37:47.467776,15.06284861,.0014226,97.4057,327.8202,116.1599,244.1094,0,U,42846,999,48679,.24801E-3,.3591E-4,0
CORVUS BC1,2017-042Y,2026-06-15T09:30:19.257408,15.06455609,.0013241,97.4092,328.6281,94.7493,265.5247,0,U,42847,999,48682,.23472E-3,.341E-4,0
VRSS-2,2017-060A,2026-06-15T11:57:28.048320,14.81192556,.0018585,97.6515,204.3013,103.7065,256.6218,0,U,42954,999,46820,.10296E-3,.753E-5,0
MOHAMMED VI-A,2017-070A,2026-06-15T12:24:58.428288,14.77069294,.0001403,97.9566,238.8714,73.5945,286.5420,0,U,43005,999,46373,.14704E-3,.987E-5,0
FENGYUN 3D,2017-072A,2026-06-15T12:38:04.346016,14.19739073,.0002593,99.0118,140.9187,64.9063,295.2381,0,U,43010,999,44475,-.44675E-5,-.56E-6,0
NOAA 20 (JPSS-1),2017-073A,2026-06-15T10:48:54.762048,14.19511360,.0000291,98.7772,105.9287,83.1943,276.9266,0,U,43013,999,44422,.34483E-4,.28E-6,0
MAKERSAT 0,2017-073D,2026-06-15T03:43:31.291392,15.32039776,.01051825,97.4630,48.6587,280.3452,78.5946,0,U,43016,999,46615,.39907099E-3,.14625E-3,0
RADFXSAT (FOX-1B),2017-073E,2026-06-15T10:07:41.245824,15.12695557,.0149803,97.4706,33.6731,335.4112,24.0025,0,U,43017,999,46512,.31325E-3,.7151E-4,0
JILIN-1 04,2017-074A,2026-06-15T11:08:38.924160,15.42405579,.0004017,97.4865,276.0303,184.2217,175.8997,0,U,43022,999,47400,.24926E-3,.10684E-3,0
JILIN-1 05,2017-074B,2026-06-15T13:19:55.178400,15.33854493,.0004235,97.4869,272.6870,220.7524,139.3402,0,U,43023,999,47375,.22253E-3,.7207E-4,0
JILIN-1 06,2017-074C,2026-06-15T12:38:43.275264,15.33676841,.0005572,97.4796,269.6699,237.6990,122.3713,0,U,43024,999,47358,.15867E-3,.5086E-4,0
IRIDIUM 116,2017-083C,2026-06-15T11:17:55.112928,14.34217875,.0001938,86.3961,322.7191,97.7660,262.3756,0,U,43072,999,44392,.45536E-5,.33E-6,0
IRIDIUM 130,2017-083D,2026-06-15T12:12:43.070976,14.34217815,.000193,86.3970,322.9783,91.6475,268.4941,0,U,43073,999,44387,.40603E-5,.31E-6,0
LKW-2,2017-084A,2026-06-15T12:29:43.653696,15.26325412,.0000881,97.1190,206.3946,180.9561,179.1677,0,U,43080,999,47143,.31935E-3,.8225E-4,0
SUPERVIEW-1 03,2018-002A,2026-06-15T11:24:43.961184,15.39203354,.0047076,97.3141,251.3152,185.6481,174.4241,0,U,43099,999,46810,.33479E-3,.13445E-3,0
CARTOSAT-2F,2018-004A,2026-06-15T11:54:09.991008,15.19205267,.0000571,97.4796,226.1470,223.1144,137.0045,0,U,43111,999,46707,.17862E-3,.3691E-4,0
LKW-3,2018-006A,2026-06-15T13:18:50.010336,15.35219022,.0002188,97.6603,327.0646,331.8138,28.2986,0,U,43146,999,46846,.22279E-3,.7532E-4,0
ASNARO-2,2018-007A,2026-06-15T13:01:42.491424,15.22433442,.0001716,97.3965,173.4959,90.5340,269.6093,0,U,43152,999,46716,.33003E-3,.7565E-4,0
JILIN-1 07,2018-008E,2026-06-15T12:40:30.953856,15.34699411,.0009987,97.1764,186.5009,70.2226,290.0093,0,U,43159,999,46474,.23644E-3,.7887E-4,0
JILIN-1 08,2018-008F,2026-06-15T12:39:16.959168,15.33697734,.000806,97.1797,185.8183,84.6506,275.5656,0,U,43160,999,46469,.18588E-3,.5986E-4,0
